STARLINK-30280
1 57643U 23122M   26061.16668981  .01286844  00000+0  55729-1 0  9996
2 57643  43.0000 134.5958 0001566 255.5958   6.6368 15.19021433  5818
